
 PEER Ground Motion Database, Time Series Search Report -- NGA-West2 -- 2024-02-07


 -- Summary of PEER Ground Motion Database Search Criteria --
Magnitude Min:, 5.0
Magnitude Max:, 7.5
Rrup Min (km):, -1.0e-06
Rrup Max (km):, 99999
Rjb Min (km):, 10.0
Rjb Max (km):, 50.0
Vs30 Min (m/sec):, 300.0
Vs30 Max (m/sec):, 2000.0
D9-95 Min (sec):, -1.0e-06
D9-95 Max (sec):, 99999
Scale Factor Min:, -1.0e-06
Scale Factor Max:, 99999
Period Array:, 
Weight Array:, 
Record Sequence Number:, 
Earthquake Name:, 
Station Name:, 
User-Defined Maximum Number of Records:, 50
Pulse:, 3
Damping Ratio:, 0.05
Scaling Method:, No Scaling
Suite Average:, Arithmetic
Single-Period-Scaling Period (sec):, 
Component:, RotD100
Fault Type:, SS+Reverse


 -- Summary of Metadata of Selected Records --
Result ID, Spectral Ordinate, Record Sequence Number, Mean Squared Error, Scale Factor, Tp-Pulse Period (sec), 5-75% Duration (sec), 5-95% Duration (sec), Arias Intensity (m/sec), Earthquake Name, Year, Station Name, Magnitude, Mechanism, Rjb (km), Rrup (km), Vs30 (m/sec), Lowest Useable Frequency (Hz), Initial-search Scale Factor, Horizontal-1 Acc. Filename, Horizontal-2 Acc. Filename, Vertical Acc. Filename
1, RotD100, 15, 0.1835, 1.0, -, 10.7, 30.3, 0.6, "Kern County", 1952, "Taft Lincoln School", 7.36, Reverse, 38.42, 38.89, 385.43, 0.125, 1.0, RSN15_KERN_TAF021.AT2, RSN15_KERN_TAF111.AT2 , RSN15_KERN_TAF-UP.AT2  
2, RotD100, 33, 0.4466, 1.0, -, 1.3, 5.5, 0.5, "Parkfield", 1966, "Temblor pre-1969", 6.19, strike slip, 15.96, 15.96, 527.92, 0.1875, 1.0, RSN33_PARKF_TMB205.AT2, RSN33_PARKF_TMB295.AT2 , RSN33_PARKF_TMBDWN.AT2  
3, RotD100, 57, 0.4035, 1.0, -, 10.6, 16.8, 1.0, "San Fernando", 1971, "Castaic - Old Ridge Route", 6.61, Reverse, 19.33, 22.63, 450.28, 0.375, 1.0, RSN57_SFERN_ORR021.AT2, RSN57_SFERN_ORR291.AT2 , RSN57_SFERN_ORRDWN.AT2  
4, RotD100, 68, 0.0832, 1.0, -, 5.2, 13.4, 0.7, "San Fernando", 1971, "LA - Hollywood Stor FF", 6.61, Reverse, 22.77, 22.77, 316.46, 0.1, 1.0, RSN68_SFERN_PEL090.AT2, RSN68_SFERN_PEL180.AT2 , RSN68_SFERN_PEL-UP.AT2  
5, RotD100, 70, 0.7778, 1.0, -, 8.0, 18.4, 0.3, "San Fernando", 1971, "Lake Hughes #1", 6.61, Reverse, 22.23, 27.4, 425.34, 0.15, 1.0, RSN70_SFERN_L01021.AT2, RSN70_SFERN_L01111.AT2 , RSN70_SFERN_L01DWN.AT2  
6, RotD100, 71, 0.884, 1.0, -, 2.8, 12.0, 0.9, "San Fernando", 1971, "Lake Hughes #12", 6.61, Reverse, 13.99, 19.3, 602.1, 0.25, 1.0, RSN71_SFERN_L12021.AT2, RSN71_SFERN_L12291.AT2 , RSN71_SFERN_L12DWN.AT2  
7, RotD100, 72, 0.9868, 1.0, -, 4.2, 13.0, 0.3, "San Fernando", 1971, "Lake Hughes #4", 6.61, Reverse, 19.45, 25.07, 600.06, 0.25, 1.0, RSN72_SFERN_L04111.AT2, RSN72_SFERN_L04201.AT2 , RSN72_SFERN_L04DWN.AT2  
8, RotD100, 78, 0.5699, 1.0, -, 10.0, 18.9, 0.3, "San Fernando", 1971, "Palmdale Fire Station", 6.61, Reverse, 24.16, 28.99, 452.86, 0.1875, 1.0, RSN78_SFERN_PDL120.AT2, RSN78_SFERN_PDL210.AT2 ,  -----   
9, RotD100, 79, 0.7902, 1.0, -, 6.7, 14.5, 0.2, "San Fernando", 1971, "Pasadena - CIT Athenaeum", 6.61, Reverse, 25.47, 25.47, 415.13, 0.375, 1.0, RSN79_SFERN_PAS000.AT2, RSN79_SFERN_PAS090.AT2 , RSN79_SFERN_PASDWN.AT2  
10, RotD100, 80, 1.5964, 1.0, -, 5.7, 14.1, 0.3, "San Fernando", 1971, "Pasadena - Old Seismo Lab", 6.61, Reverse, 21.5, 21.5, 969.07, 0.625, 1.0, RSN80_SFERN_PSL180.AT2, RSN80_SFERN_PSL270.AT2 , RSN80_SFERN_PSLDWN.AT2  
11, RotD100, 88, 0.6946, 1.0, -, 7.4, 23.6, 0.2, "San Fernando", 1971, "Santa Felita Dam (Outlet)", 6.61, Reverse, 24.69, 24.87, 389.0, 0.125, 1.0, RSN88_SFERN_FSD172.AT2, RSN88_SFERN_FSD262.AT2 , RSN88_SFERN_FSD-UP.AT2  
12, RotD100, 125, 0.3146, 1.0, -, 2.5, 4.9, 1.2, "Friuli_ Italy-01", 1976, "Tolmezzo", 6.5, Reverse, 14.97, 15.82, 505.23, 0.1625, 1.0, RSN125_FRIULI.A_A-TMZ000.AT2, RSN125_FRIULI.A_A-TMZ270.AT2 , RSN125_FRIULI.A_A-TMZ-UP.AT2  
13, RotD100, 130, 0.8716, 1.0, -, 4.8, 10.2, 0.2, "Friuli_ Italy-02", 1976, "Buia", 5.91, Reverse, 10.99, 11.03, 310.68, 0.25, 1.0, RSN130_FRIULI.B_B-BUI000.AT2, RSN130_FRIULI.B_B-BUI270.AT2 , RSN130_FRIULI.B_B-BUI-UP.AT2  
14, RotD100, 132, 0.9949, 1.0, -, 2.8, 4.6, 0.4, "Friuli_ Italy-02", 1976, "Forgaria Cornino", 5.91, Reverse, 14.65, 14.75, 412.37, 0.275, 1.0, RSN132_FRIULI.B_B-FOC000.AT2, RSN132_FRIULI.B_B-FOC270.AT2 , RSN132_FRIULI.B_B-FOC-UP.AT2  
15, RotD100, 133, 1.4092, 1.0, -, 2.8, 5.1, 0.1, "Friuli_ Italy-02", 1976, "San Rocco", 5.91, Reverse, 14.37, 14.5, 649.67, 0.2875, 1.0, RSN133_FRIULI.B_B-SRO000.AT2, RSN133_FRIULI.B_B-SRO270.AT2 , RSN133_FRIULI.B_B-SRO-UP.AT2  
16, RotD100, 138, 0.588, 1.0, -, 14.6, 19.5, 0.3, "Tabas_ Iran", 1978, "Boshrooyeh", 7.35, Reverse, 24.07, 28.79, 324.57, 0.15625, 1.0, RSN138_TABAS_BOS-L1.AT2, RSN138_TABAS_BOS-T1.AT2 , RSN138_TABAS_BOS-V1.AT2  
17, RotD100, 154, 1.4722, 1.0, -, 6.9, 15.1, 0.1, "Coyote Lake", 1979, "San Juan Bautista_ 24 Polk St", 5.74, strike slip, 19.46, 19.7, 335.5, 0.125, 1.0, RSN154_COYOTELK_SJB213.AT2, RSN154_COYOTELK_SJB303.AT2 , RSN154_COYOTELK_SJB-UP.AT2  
18, RotD100, 164, 0.1163, 1.0, -, 19.7, 36.4, 1.3, "Imperial Valley-06", 1979, "Cerro Prieto", 6.53, strike slip, 15.19, 15.19, 471.53, 0.1125, 1.0, RSN164_IMPVALL.H_H-CPE147.AT2, RSN164_IMPVALL.H_H-CPE237.AT2 , RSN164_IMPVALL.H_H-CPEDWN.AT2  
19, RotD100, 166, 0.8314, 1.0, -, 4.7, 11.1, 0.2, "Imperial Valley-06", 1979, "Coachella Canal #4", 6.53, strike slip, 49.1, 50.1, 336.49, 0.1375, 1.0, RSN166_IMPVALL.H_H-CC4045.AT2, RSN166_IMPVALL.H_H-CC4135.AT2 , RSN166_IMPVALL.H_H-CC4-UP.AT2  
20, RotD100, 187, 0.2885, 1.0, -, 7.1, 18.6, 0.2, "Imperial Valley-06", 1979, "Parachute Test Site", 6.53, strike slip, 12.69, 12.69, 348.69, 0.0625, 1.0, RSN187_IMPVALL.H_H-PTS225.AT2, RSN187_IMPVALL.H_H-PTS315.AT2 , RSN187_IMPVALL.H_H-PTS-UP.AT2  
21, RotD100, 190, 1.3768, 1.0, -, 6.2, 11.6, 0.2, "Imperial Valley-06", 1979, "Superstition Mtn Camera", 6.53, strike slip, 24.61, 24.61, 362.38, 0.125, 1.0, RSN190_IMPVALL.H_H-SUP045.AT2, RSN190_IMPVALL.H_H-SUP135.AT2 , RSN190_IMPVALL.H_H-SUP-UP.AT2  
22, RotD100, 212, 0.3951, 1.0, -, 4.8, 12.1, 0.2, "Livermore-01", 1980, "Del Valle Dam (Toe)", 5.8, strike slip, 23.92, 24.95, 403.37, 0.1625, 1.0, RSN212_LIVERMOR_A-DVD156.AT2, RSN212_LIVERMOR_A-DVD246.AT2 , RSN212_LIVERMOR_A-DVD-UP.AT2  
23, RotD100, 214, 0.5773, 1.0, -, 7.8, 14.2, 0.2, "Livermore-01", 1980, "San Ramon - Eastman Kodak", 5.8, strike slip, 15.19, 17.24, 377.51, 0.15, 1.0, RSN214_LIVERMOR_A-KOD180.AT2, RSN214_LIVERMOR_A-KOD270.AT2 , RSN214_LIVERMOR_A-KOD-UP.AT2  
24, RotD100, 223, 0.7082, 1.0, -, 5.8, 12.4, 0.3, "Livermore-02", 1980, "San Ramon - Eastman Kodak", 5.42, strike slip, 14.31, 18.28, 377.51, 0.25, 1.0, RSN223_LIVERMOR_B-KOD180.AT2, RSN223_LIVERMOR_B-KOD270.AT2 , RSN223_LIVERMOR_B-KOD-UP.AT2  
25, RotD100, 238, 1.6178, 1.0, -, 4.5, 12.8, 0.1, "Mammoth Lakes-03", 1980, "Long Valley Dam (L Abut)", 5.91, strike slip, 10.31, 18.13, 537.16, 0.3, 1.0, RSN238_MAMMOTH.AH_A-LVL000.AT2, RSN238_MAMMOTH.AH_A-LVL090.AT2 , RSN238_MAMMOTH.AH_A-LVL-UP.AT2  
26, RotD100, 239, 0.7348, 1.0, -, 4.1, 8.4, 0.7, "Mammoth Lakes-03", 1980, "Long Valley Dam (Upr L Abut)", 5.91, strike slip, 10.31, 18.13, 537.16, 0.25, 1.0, RSN239_MAMMOTH.AH_A-LUL000.AT2, RSN239_MAMMOTH.AH_A-LUL090.AT2 , RSN239_MAMMOTH.AH_A-LUL-UP.AT2  
27, RotD100, 243, 1.5398, 1.0, -, 3.9, 7.1, 0.4, "Mammoth Lakes-04", 1980, "Long Valley Dam (Upr L Abut)", 5.7, strike slip, 12.75, 14.38, 537.16, 0.625, 1.0, RSN243_MAMMOTH.AH_B-LUL000.AT2, RSN243_MAMMOTH.AH_B-LUL090.AT2 , RSN243_MAMMOTH.AH_B-LUL-UP.AT2  
28, RotD100, 246, 1.4924, 1.0, -, 3.7, 12.6, 0.1, "Mammoth Lakes-06", 1980, "Benton", 5.94, strike slip, 41.75, 44.21, 370.94, 0.2875, 1.0, RSN246_MAMMOTH.L_L-BEN270.AT2, RSN246_MAMMOTH.L_L-BEN360.AT2 , RSN246_MAMMOTH.L_L-BEN-UP.AT2  
29, RotD100, 265, 0.6319, 1.0, -, 4.4, 8.2, 2.0, "Victoria_ Mexico", 1980, "Cerro Prieto", 6.33, strike slip, 13.8, 14.37, 471.53, 0.375, 1.0, RSN265_VICT_CPE045.AT2, RSN265_VICT_CPE315.AT2 , RSN265_VICT_CPE-UP.AT2  
30, RotD100, 306, 1.1936, 1.0, -, 4.2, 14.0, 0.1, "Taiwan SMART1(5)", 1981, "SMART1 C00", 5.9, Reverse, 25.5, 26.59, 309.41, 0.1625, 1.0, RSN306_SMART1.05_05C00EW.AT2, RSN306_SMART1.05_05C00NS.AT2 , RSN306_SMART1.05_05C00DN.AT2  
31, RotD100, 307, 1.5578, 1.0, -, 6.0, 17.4, 0.1, "Taiwan SMART1(5)", 1981, "SMART1 I06", 5.9, Reverse, 25.31, 26.4, 309.41, 0.175, 1.0, RSN307_SMART1.05_05I06EW.AT2, RSN307_SMART1.05_05I06NS.AT2 , RSN307_SMART1.05_05I06DN.AT2  
32, RotD100, 310, 1.3859, 1.0, -, 4.4, 14.9, 0.1, "Taiwan SMART1(5)", 1981, "SMART1 M07", 5.9, Reverse, 24.68, 25.79, 327.61, 0.1625, 1.0, RSN310_SMART1.05_05M07EW.AT2, RSN310_SMART1.05_05M07NS.AT2 , RSN310_SMART1.05_05M07DN.AT2  
33, RotD100, 312, 1.4603, 1.0, -, 4.7, 16.3, 0.1, "Taiwan SMART1(5)", 1981, "SMART1 O07", 5.9, Reverse, 23.77, 24.93, 314.33, 0.25, 1.0, RSN312_SMART1.05_05O07EW.AT2, RSN312_SMART1.05_05O07NS.AT2 , RSN312_SMART1.05_05O07DN.AT2  
34, RotD100, 318, 1.554, 1.0, -, 5.0, 11.1, 0.1, "Westmorland", 1981, "Superstition Mtn Camera", 5.9, strike slip, 19.26, 19.37, 362.38, 0.1, 1.0, RSN318_WESMORL_SUP045.AT2, RSN318_WESMORL_SUP135.AT2 , RSN318_WESMORL_SUP-UP.AT2  
35, RotD100, 324, 1.101, 1.0, -, 10.5, 29.0, 0.2, "Coalinga-01", 1983, "Parkfield - Cholame 1E", 6.36, Reverse, 42.76, 43.68, 326.64, 0.1875, 1.0, RSN324_COALINGA.H_H-C01000.AT2, RSN324_COALINGA.H_H-C01090.AT2 , RSN324_COALINGA.H_H-C01-UP.AT2  
36, RotD100, 330, 1.0944, 1.0, -, 5.4, 13.6, 0.3, "Coalinga-01", 1983, "Parkfield - Cholame 4W", 6.36, Reverse, 45.49, 46.35, 410.4, 0.175, 1.0, RSN330_COALINGA.H_H-C04000.AT2, RSN330_COALINGA.H_H-C04090.AT2 , RSN330_COALINGA.H_H-C04-UP.AT2  
37, RotD100, 335, 0.7459, 1.0, -, 8.0, 21.7, 0.2, "Coalinga-01", 1983, "Parkfield - Fault Zone 10", 6.36, Reverse, 30.34, 31.62, 372.73, 0.2875, 1.0, RSN335_COALINGA.H_H-Z10000.AT2, RSN335_COALINGA.H_H-Z10090.AT2 , RSN335_COALINGA.H_H-Z10-UP.AT2  
38, RotD100, 336, 1.2542, 1.0, -, 4.5, 13.4, 0.1, "Coalinga-01", 1983, "Parkfield - Fault Zone 11", 6.36, Reverse, 27.1, 28.52, 541.73, 0.25, 1.0, RSN336_COALINGA.H_H-Z11000.AT2, RSN336_COALINGA.H_H-Z11090.AT2 , RSN336_COALINGA.H_H-Z11-UP.AT2  
39, RotD100, 339, 0.2827, 1.0, -, 10.4, 19.7, 0.5, "Coalinga-01", 1983, "Parkfield - Fault Zone 15", 6.36, Reverse, 28.0, 29.38, 307.59, 0.25, 1.0, RSN339_COALINGA.H_H-Z15000.AT2, RSN339_COALINGA.H_H-Z15090.AT2 , RSN339_COALINGA.H_H-Z15-UP.AT2  
40, RotD100, 340, 0.4548, 1.0, -, 6.3, 12.0, 0.4, "Coalinga-01", 1983, "Parkfield - Fault Zone 16", 6.36, Reverse, 26.2, 27.67, 384.26, 0.2875, 1.0, RSN340_COALINGA.H_H-Z16000.AT2, RSN340_COALINGA.H_H-Z16090.AT2 , RSN340_COALINGA.H_H-Z16-UP.AT2  
41, RotD100, 346, 0.5799, 1.0, -, 6.1, 12.7, 0.3, "Coalinga-01", 1983, "Parkfield - Fault Zone 8", 6.36, Reverse, 28.58, 29.94, 308.84, 0.175, 1.0, RSN346_COALINGA.H_H-Z08000.AT2, RSN346_COALINGA.H_H-Z08090.AT2 , RSN346_COALINGA.H_H-Z08-UP.AT2  
42, RotD100, 349, 1.5266, 1.0, -, 6.2, 13.3, 0.1, "Coalinga-01", 1983, "Parkfield - Gold Hill 2E", 6.36, Reverse, 31.85, 33.07, 360.92, 0.25, 1.0, RSN349_COALINGA.H_H-GH2000.AT2, RSN349_COALINGA.H_H-GH2090.AT2 , RSN349_COALINGA.H_H-GH2-UP.AT2  
43, RotD100, 351, 1.2163, 1.0, -, 5.6, 15.2, 0.1, "Coalinga-01", 1983, "Parkfield - Gold Hill 3E", 6.36, Reverse, 28.72, 30.07, 450.61, 0.25, 1.0, RSN351_COALINGA.H_H-GH3000.AT2, RSN351_COALINGA.H_H-GH3090.AT2 , RSN351_COALINGA.H_H-GH3-UP.AT2  
44, RotD100, 352, 0.7401, 1.0, -, 3.9, 14.7, 0.2, "Coalinga-01", 1983, "Parkfield - Gold Hill 3W", 6.36, Reverse, 38.1, 39.12, 510.92, 0.15, 1.0, RSN352_COALINGA.H_H-PG3000.AT2, RSN352_COALINGA.H_H-PG3090.AT2 , RSN352_COALINGA.H_H-PG3-UP.AT2  
45, RotD100, 353, 1.4764, 1.0, -, 9.3, 27.5, 0.1, "Coalinga-01", 1983, "Parkfield - Gold Hill 4W", 6.36, Reverse, 40.13, 41.1, 421.2, 0.1625, 1.0, RSN353_COALINGA.H_H-PG4000.AT2, RSN353_COALINGA.H_H-PG4090.AT2 , RSN353_COALINGA.H_H-PG4-UP.AT2  
46, RotD100, 356, 1.5407, 1.0, -, 6.2, 18.9, 0.1, "Coalinga-01", 1983, "Parkfield - Stone Corral 2E", 6.36, Reverse, 35.29, 36.4, 566.33, 0.2875, 1.0, RSN356_COALINGA.H_H-SC2000.AT2, RSN356_COALINGA.H_H-SC2090.AT2 , RSN356_COALINGA.H_H-SC2-UP.AT2  
47, RotD100, 357, 0.9466, 1.0, -, 5.4, 12.2, 0.1, "Coalinga-01", 1983, "Parkfield - Stone Corral 3E", 6.36, Reverse, 32.81, 34.0, 565.08, 0.15, 1.0, RSN357_COALINGA.H_H-SC3000.AT2, RSN357_COALINGA.H_H-SC3090.AT2 , RSN357_COALINGA.H_H-SC3-UP.AT2  
48, RotD100, 359, 0.2688, 1.0, -, 3.8, 10.9, 0.4, "Coalinga-01", 1983, "Parkfield - Vineyard Cany 1E", 6.36, Reverse, 24.83, 26.38, 381.27, 0.2875, 1.0, RSN359_COALINGA.H_H-PV1000.AT2, RSN359_COALINGA.H_H-PV1090.AT2 , RSN359_COALINGA.H_H-PV1-UP.AT2  
49, RotD100, 362, 1.4118, 1.0, -, 8.9, 14.1, 0.1, "Coalinga-01", 1983, "Parkfield - Vineyard Cany 2W", 6.36, Reverse, 29.01, 30.35, 438.74, 0.2875, 1.0, RSN362_COALINGA.H_H-VC2000.AT2, RSN362_COALINGA.H_H-VC2090.AT2 , RSN362_COALINGA.H_H-VC2-UP.AT2  
50, RotD100, 363, 0.9599, 1.0, -, 7.7, 16.7, 0.3, "Coalinga-01", 1983, "Parkfield - Vineyard Cany 3W", 6.36, Reverse, 30.91, 32.17, 308.87, 0.2625, 1.0, RSN363_COALINGA.H_H-VYC020.AT2, RSN363_COALINGA.H_H-VYC110.AT2 , RSN363_COALINGA.H_H-VYC-UP.AT2  

 These records were obtained from the NGA-West2 On-Line Ground-Motion Database Tool
 These records are UNSCALED, AS RECORDED
 Filename Extension: 
   ,AT2 = Acceleration
   ,VT2 = Velocity
   ,DT2 = Displacement
 The users of the NGA-West2 databases, flatfiles, models and reports are requested to acknowledge the Pacific Earthquake Engineering Research Center (PEER) in their work and publications.

 -- Scaled Spectra used in Search & Scaling --
Period (sec),Target pSa (g),Arithmetic Mean pSa (g),Arithmetic Mean + Sigma pSa (g),Arithmetic Mean - Sigma pSa (g),RSN-15 RotD100 pSa (g),RSN-33 RotD100 pSa (g),RSN-57 RotD100 pSa (g),RSN-68 RotD100 pSa (g),RSN-70 RotD100 pSa (g),RSN-71 RotD100 pSa (g),RSN-72 RotD100 pSa (g),RSN-78 RotD100 pSa (g),RSN-79 RotD100 pSa (g),RSN-80 RotD100 pSa (g),RSN-88 RotD100 pSa (g),RSN-125 RotD100 pSa (g),RSN-130 RotD100 pSa (g),RSN-132 RotD100 pSa (g),RSN-133 RotD100 pSa (g),RSN-138 RotD100 pSa (g),RSN-154 RotD100 pSa (g),RSN-164 RotD100 pSa (g),RSN-166 RotD100 pSa (g),RSN-187 RotD100 pSa (g),RSN-190 RotD100 pSa (g),RSN-212 RotD100 pSa (g),RSN-214 RotD100 pSa (g),RSN-223 RotD100 pSa (g),RSN-238 RotD100 pSa (g),RSN-239 RotD100 pSa (g),RSN-243 RotD100 pSa (g),RSN-246 RotD100 pSa (g),RSN-265 RotD100 pSa (g),RSN-306 RotD100 pSa (g),RSN-307 RotD100 pSa (g),RSN-310 RotD100 pSa (g),RSN-312 RotD100 pSa (g),RSN-318 RotD100 pSa (g),RSN-324 RotD100 pSa (g),RSN-330 RotD100 pSa (g),RSN-335 RotD100 pSa (g),RSN-336 RotD100 pSa (g),RSN-339 RotD100 pSa (g),RSN-340 RotD100 pSa (g),RSN-346 RotD100 pSa (g),RSN-349 RotD100 pSa (g),RSN-351 RotD100 pSa (g),RSN-352 RotD100 pSa (g),RSN-353 RotD100 pSa (g),RSN-356 RotD100 pSa (g),RSN-357 RotD100 pSa (g),RSN-359 RotD100 pSa (g),RSN-362 RotD100 pSa (g),RSN-363 RotD100 pSa (g)
0.01,0.27459808,0.19772827,0.35485751,0.11017512,0.2226803,0.3779132,0.3526159,0.2585745,0.1542263,0.3990627,0.20075,0.1541068,0.1165499,0.2076062,0.1892973,0.3966545,0.1273983,0.3044607,0.13431,0.1098502,0.1122333,0.1871273,0.1648522,0.2248659,0.2120807,0.2651356,0.1585243,0.2810209,0.08854304,0.4852176,0.3223166,0.1880269,0.6818812,0.1431536,0.09646303,0.1141497,0.08881262,0.1058821,0.1162482,0.1491619,0.1343444,0.09772398,0.2289878,0.2043827,0.1358731,0.09182344,0.09919753,0.1440915,0.1068667,0.1056776,0.153659,0.2338205,0.1146022,0.1436096
0.02,0.27964247,0.20348038,0.38573898,0.10733752,0.221482,0.3736331,0.3506591,0.2889948,0.1550083,0.4754542,0.1990661,0.1529071,0.1189613,0.2051066,0.1931815,0.4060265,0.1278238,0.3060414,0.1359477,0.1107342,0.1128592,0.1875921,0.1658069,0.2297849,0.2248706,0.2663452,0.1586636,0.2818308,0.09953955,0.5230657,0.333273,0.1902084,0.7858881,0.1419942,0.09628408,0.1130527,0.08831234,0.106274,0.1153131,0.1480815,0.1338108,0.097474,0.2282304,0.2025872,0.1348717,0.09156545,0.09859033,0.1435347,0.1064352,0.1049246,0.1523081,0.2322248,0.113557,0.1438372
0.022,0.28278769,0.20517286,0.39290881,0.10713912,0.2217818,0.3739227,0.3512157,0.2946643,0.1541428,0.4688647,0.2060278,0.1487901,0.1185934,0.2126177,0.1940997,0.4141197,0.127666,0.3127542,0.137444,0.1131687,0.1125133,0.1870629,0.1666528,0.2316885,0.2250669,0.2668043,0.1586979,0.2822936,0.09751316,0.5381301,0.3445401,0.1930753,0.8079816,0.1420057,0.09639405,0.1132471,0.08836773,0.10846,0.1154113,0.1480907,0.1338668,0.09740593,0.2283594,0.2030735,0.134991,0.09173111,0.09871395,0.1434044,0.1064221,0.1044933,0.1525155,0.2325065,0.113507,0.1437823
0.025,0.28706178,0.20791123,0.40405949,0.10698197,0.2224271,0.3736341,0.3528732,0.3065227,0.1559284,0.446817,0.2177791,0.1553667,0.1221771,0.215594,0.1975851,0.4155634,0.1286386,0.3195484,0.1358938,0.1146421,0.1128557,0.1853535,0.1652154,0.2320618,0.2300144,0.2672236,0.1587834,0.282832,0.1021333,0.5664124,0.3654307,0.1939347,0.8478105,0.1423213,0.09644999,0.1137599,0.08854527,0.1107087,0.1155071,0.1481098,0.1338794,0.09738587,0.2287126,0.2039811,0.1351915,0.09209628,0.09859063,0.144197,0.1070049,0.1045747,0.1528152,0.2329326,0.1136968,0.1440485
0.029,0.29210529,0.21313102,0.43192268,0.1051689,0.2234169,0.3742456,0.3552057,0.323605,0.1570827,0.4437859,0.2409784,0.1652245,0.1265916,0.2035969,0.1990693,0.4182994,0.1323716,0.3250451,0.1369552,0.1109192,0.1137227,0.1880032,0.1663774,0.2451289,0.2424977,0.2709031,0.1589876,0.282912,0.09683686,0.5795546,0.4096387,0.1968946,0.9552211,0.1429951,0.09659178,0.1135683,0.08895811,0.1114631,0.1157341,0.1486501,0.1338855,0.09745326,0.2290998,0.2035991,0.1355051,0.09306426,0.0991594,0.1446425,0.1071927,0.1059653,0.1533814,0.2332526,0.1143001,0.1450179
0.03,0.29326968,0.21586684,0.44600923,0.10447876,0.2236353,0.3746116,0.3591411,0.3236294,0.1579345,0.4377569,0.252972,0.1660194,0.1305794,0.2059717,0.1985616,0.4258303,0.1331845,0.3233639,0.1381782,0.1137554,0.1138916,0.18673,0.1658844,0.2436365,0.2439756,0.2723356,0.1591044,0.2827773,0.1061429,0.5950223,0.4445437,0.1968902,1.000753,0.1429669,0.09655575,0.1137836,0.08900931,0.1119963,0.1157238,0.1484753,0.1340343,0.09749173,0.2293058,0.2038018,0.1355754,0.09298357,0.09922727,0.1445675,0.1080656,0.1063709,0.1534365,0.2334847,0.1142299,0.1454434
0.032,0.29822942,0.21713864,0.44131913,0.10683695,0.2242476,0.3750735,0.3782993,0.3297853,0.1593363,0.4326681,0.2575857,0.1655547,0.136888,0.2074686,0.197264,0.4401888,0.136637,0.3132032,0.1420743,0.1204246,0.1137302,0.199681,0.1654879,0.2422377,0.2294158,0.2736662,0.1592976,0.2835393,0.1153693,0.603363,0.4748164,0.198229,0.9585213,0.1428306,0.09664715,0.1147735,0.08908993,0.1117248,0.1159071,0.148668,0.1341856,0.09775218,0.2294337,0.2047906,0.1351407,0.09360385,0.09857953,0.1449007,0.108448,0.1068792,0.1533803,0.2341386,0.1143925,0.1476118
0.035,0.30525545,0.21878301,0.44414705,0.10777063,0.2252639,0.3746746,0.3909558,0.3062291,0.1582486,0.4387973,0.2502089,0.1689589,0.1274755,0.2115642,0.2013663,0.4537891,0.1377213,0.3211531,0.1455579,0.1211045,0.1136728,0.1973726,0.1671875,0.2367548,0.2437682,0.2712329,0.1596834,0.2847114,0.1152635,0.6298819,0.5291146,0.1969969,0.9268157,0.143249,0.09701343,0.1146515,0.08883189,0.1128944,0.1162873,0.1483014,0.1345217,0.0986952,0.2300929,0.2071513,0.1357083,0.09540056,0.09847018,0.145999,0.1089318,0.1088237,0.1533397,0.2340155,0.114539,0.1467077
0.036,0.3074982,0.22011792,0.44567313,0.10871622,0.2255612,0.3740185,0.3951188,0.2990415,0.1565322,0.4465565,0.2634974,0.1694042,0.1381248,0.2145488,0.2056194,0.4593317,0.1362618,0.3198379,0.1447742,0.1190621,0.1137732,0.2046712,0.1668421,0.2328611,0.2440452,0.2698822,0.1600078,0.2849838,0.1219599,0.628822,0.5516096,0.1983622,0.9193949,0.1437939,0.09719555,0.1151628,0.08918703,0.1136313,0.1165003,0.1482089,0.1345843,0.09913468,0.2302967,0.2084422,0.1359832,0.09627195,0.09869783,0.1465341,0.1087954,0.1097386,0.153422,0.2339098,0.115524,0.1463752
